{"type":"FeatureCollection","name":"study_area_region_grid","crs":{"type":"name","properties":{"name":"urn:ogc:def:crs:OGC:1.3:CRS84"}},"features":[{"type":"Feature","properties":{"row_id":1,"col_id":1,"region_name":"外围-西部","cell_id":"r1_c1","area_km2":6.805435048469064},"geometry":{"type":"Polygon","coordinates":[[[105.660263,28.056499],[105.660263,28.0314987256145],[105.63526264470082,28.0314987256145],[105.63526264470082,28.056499],[105.660263,28.056499]]]}},{"type":"Feature","properties":{"row_id":1,"col_id":2,"region_name":"外围-西部","cell_id":"r1_c2","area_km2":13.610839685411122},"geometry":{"type":"Polygon","coordinates":[[[105.660263,28.056499],[105.710263,28.056499],[105.710263,28.0314987256145],[105.660263,28.0314987256145],[105.660263,28.056499]]]}},{"type":"Feature","properties":{"row_id":1,"col_id":3,"region_name":"城镇区域（南）","cell_id":"r1_c3","area_km2":13.611070285181736},"geometry":{"type":"Polygon","coordinates":[[[105.710263,28.056499],[105.760263,28.056499],[105.760263,28.0314987256145],[105.710263,28.0314987256145],[105.710263,28.056499]]]}},{"type":"Feature","properties":{"row_id":1,"col_id":4,"region_name":"城镇区域（南）","cell_id":"r1_c4","area_km2":13.611317123308279},"geometry":{"type":"Polygon","coordinates":[[[105.760263,28.056499],[105.810263,28.056499],[105.810263,28.0314987256145],[105.760263,28.0314987256145],[105.760263,28.056499]]]}},{"type":"Feature","properties":{"row_id":1,"col_id":5,"region_name":"城镇区域（南）","cell_id":"r1_c5","area_km2":13.6115802007957},"geometry":{"type":"Polygon","coordinates":[[[105.810263,28.056499],[105.860263,28.056499],[105.860263,28.0314987256145],[105.810263,28.0314987256145],[105.810263,28.056499]]]}},{"type":"Feature","properties":{"row_id":1,"col_id":6,"region_name":"城镇区域（南）","cell_id":"r1_c6","area_km2":13.611859518722502},"geometry":{"type":"Polygon","coordinates":[[[105.860263,28.056499],[105.910263,28.056499],[105.910263,28.0314987256145],[105.860263,28.0314987256145],[105.860263,28.056499]]]}},{"type":"Feature","properties":{"row_id":1,"col_id":7,"region_name":"外围-东部","cell_id":"r1_c7","area_km2":13.612155078232608},"geometry":{"type":"Polygon","coordinates":[[[105.910263,28.056499],[105.960263,28.056499],[105.960263,28.0314987256145],[105.910263,28.0314987256145],[105.910263,28.056499]]]}},{"type":"Feature","properties":{"row_id":1,"col_id":8,"region_name":"外围-东部","cell_id":"r1_c8","area_km2":9.100878492128201},"geometry":{"type":"Polygon","coordinates":[[[105.960263,28.056499],[105.99369159977894,28.056499],[105.99369159977894,28.0314987256145],[105.960263,28.0314987256145],[105.960263,28.056499]]]}},{"type":"Feature","properties":{"row_id":2,"col_id":1,"region_name":"外围-西部","cell_id":"r2_c1","area_km2":13.606069646479156},"geometry":{"type":"Polygon","coordinates":[[[105.660263,28.106499],[105.660263,28.056499],[105.63526264470082,28.056499],[105.63526264470082,28.106499],[105.660263,28.106499]]]}},{"type":"Feature","properties":{"row_id":2,"col_id":2,"region_name":"外围-西部","cell_id":"r2_c2","area_km2":27.212078260924066},"geometry":{"type":"Polygon","coordinates":[[[105.660263,28.056499],[105.660263,28.106499],[105.710263,28.106499],[105.710263,28.056499],[105.660263,28.056499]]]}},{"type":"Feature","properties":{"row_id":2,"col_id":3,"region_name":"外围-西部","cell_id":"r2_c3","area_km2":27.2125389744011},"geometry":{"type":"Polygon","coordinates":[[[105.710263,28.056499],[105.710263,28.106499],[105.760263,28.106499],[105.760263,28.056499],[105.710263,28.056499]]]}},{"type":"Feature","properties":{"row_id":2,"col_id":4,"region_name":"外围-南部","cell_id":"r2_c4","area_km2":27.21303213034585},"geometry":{"type":"Polygon","coordinates":[[[105.760263,28.056499],[105.760263,28.106499],[105.810263,28.106499],[105.810263,28.056499],[105.760263,28.056499]]]}},{"type":"Feature","properties":{"row_id":2,"col_id":5,"region_name":"茶林区域-东南","cell_id":"r2_c5","area_km2":27.213557730773694},"geometry":{"type":"Polygon","coordinates":[[[105.810263,28.056499],[105.810263,28.106499],[105.860263,28.106499],[105.860263,28.056499],[105.810263,28.056499]]]}},{"type":"Feature","properties":{"row_id":2,"col_id":6,"region_name":"外围-东部","cell_id":"r2_c6","area_km2":27.214115777828024},"geometry":{"type":"Polygon","coordinates":[[[105.860263,28.056499],[105.860263,28.106499],[105.910263,28.106499],[105.910263,28.056499],[105.860263,28.056499]]]}},{"type":"Feature","properties":{"row_id":2,"col_id":7,"region_name":"外围-东部","cell_id":"r2_c7","area_km2":27.214706273793613},"geometry":{"type":"Polygon","coordinates":[[[105.910263,28.056499],[105.910263,28.106499],[105.960263,28.106499],[105.960263,28.056499],[105.910263,28.056499]]]}},{"type":"Feature","properties":{"row_id":2,"col_id":8,"region_name":"外围-东部","cell_id":"r2_c8","area_km2":18.195335733851827},"geometry":{"type":"Polygon","coordinates":[[[105.960263,28.056499],[105.960263,28.106499],[105.99369159977894,28.106499],[105.99369159977894,28.056499],[105.960263,28.056499]]]}},{"type":"Feature","properties":{"row_id":3,"col_id":1,"region_name":"外围-西部","cell_id":"r3_c1","area_km2":13.59986049921278},"geometry":{"type":"Polygon","coordinates":[[[105.660263,28.156499],[105.660263,28.106499],[105.63526264470082,28.106499],[105.63526264470082,28.156499],[105.660263,28.156499]]]}},{"type":"Feature","properties":{"row_id":3,"col_id":2,"region_name":"外围-西部","cell_id":"r3_c2","area_km2":27.19965968688222},"geometry":{"type":"Polygon","coordinates":[[[105.660263,28.106499],[105.660263,28.156499],[105.710263,28.156499],[105.710263,28.106499],[105.660263,28.106499]]]}},{"type":"Feature","properties":{"row_id":3,"col_id":3,"region_name":"外围-西部","cell_id":"r3_c3","area_km2":27.200119758743995},"geometry":{"type":"Polygon","coordinates":[[[105.710263,28.106499],[105.710263,28.156499],[105.760263,28.156499],[105.760263,28.106499],[105.710263,28.106499]]]}},{"type":"Feature","properties":{"row_id":3,"col_id":4,"region_name":"茶林区域-南部","cell_id":"r3_c4","area_km2":27.20061222787645},"geometry":{"type":"Polygon","coordinates":[[[105.760263,28.106499],[105.760263,28.156499],[105.810263,28.156499],[105.810263,28.106499],[105.760263,28.106499]]]}},{"type":"Feature","properties":{"row_id":3,"col_id":5,"region_name":"茶林区域-东南","cell_id":"r3_c5","area_km2":27.201137096287972},"geometry":{"type":"Polygon","coordinates":[[[105.810263,28.106499],[105.810263,28.156499],[105.860263,28.156499],[105.860263,28.106499],[105.810263,28.106499]]]}},{"type":"Feature","properties":{"row_id":3,"col_id":6,"region_name":"茶林区域-东南","cell_id":"r3_c6","area_km2":27.201694366121018},"geometry":{"type":"Polygon","coordinates":[[[105.860263,28.106499],[105.860263,28.156499],[105.910263,28.156499],[105.910263,28.106499],[105.860263,28.106499]]]}},{"type":"Feature","properties":{"row_id":3,"col_id":7,"region_name":"外围-东部","cell_id":"r3_c7","area_km2":27.20228403964129},"geometry":{"type":"Polygon","coordinates":[[[105.910263,28.106499],[105.910263,28.156499],[105.960263,28.156499],[105.960263,28.106499],[105.910263,28.106499]]]}},{"type":"Feature","properties":{"row_id":3,"col_id":8,"region_name":"外围-东部","cell_id":"r3_c8","area_km2":18.187030096285643},"geometry":{"type":"Polygon","coordinates":[[[105.960263,28.106499],[105.960263,28.156499],[105.99369159977894,28.156499],[105.99369159977894,28.106499],[105.960263,28.106499]]]}},{"type":"Feature","properties":{"row_id":4,"col_id":1,"region_name":"外围-西部","cell_id":"r4_c1","area_km2":13.593641027446836},"geometry":{"type":"Polygon","coordinates":[[[105.660263,28.206499],[105.660263,28.156499],[105.63526264470082,28.156499],[105.63526264470082,28.206499],[105.660263,28.206499]]]}},{"type":"Feature","properties":{"row_id":4,"col_id":2,"region_name":"外围-西部","cell_id":"r4_c2","area_km2":27.187220463809375},"geometry":{"type":"Polygon","coordinates":[[[105.660263,28.156499],[105.660263,28.206499],[105.710263,28.206499],[105.710263,28.156499],[105.660263,28.156499]]]}},{"type":"Feature","properties":{"row_id":4,"col_id":3,"region_name":"茶林区域-西部","cell_id":"r4_c3","area_km2":27.187679893603907},"geometry":{"type":"Polygon","coordinates":[[[105.710263,28.156499],[105.710263,28.206499],[105.760263,28.206499],[105.760263,28.156499],[105.710263,28.156499]]]}},{"type":"Feature","properties":{"row_id":4,"col_id":4,"region_name":"茶林区域（中）","cell_id":"r4_c4","area_km2":27.188171675440923},"geometry":{"type":"Polygon","coordinates":[[[105.760263,28.156499],[105.760263,28.206499],[105.810263,28.206499],[105.810263,28.156499],[105.760263,28.156499]]]}},{"type":"Feature","properties":{"row_id":4,"col_id":5,"region_name":"茶林区域-东部","cell_id":"r4_c5","area_km2":27.18869581131973},"geometry":{"type":"Polygon","coordinates":[[[105.810263,28.156499],[105.810263,28.206499],[105.860263,28.206499],[105.860263,28.156499],[105.810263,28.156499]]]}},{"type":"Feature","properties":{"row_id":4,"col_id":6,"region_name":"茶林区域-东部","cell_id":"r4_c6","area_km2":27.189252303372516},"geometry":{"type":"Polygon","coordinates":[[[105.860263,28.156499],[105.860263,28.206499],[105.910263,28.206499],[105.910263,28.156499],[105.860263,28.156499]]]}},{"type":"Feature","properties":{"row_id":4,"col_id":7,"region_name":"外围-东部","cell_id":"r4_c7","area_km2":27.18984115386809},"geometry":{"type":"Polygon","coordinates":[[[105.910263,28.156499],[105.910263,28.206499],[105.960263,28.206499],[105.960263,28.156499],[105.910263,28.156499]]]}},{"type":"Feature","properties":{"row_id":4,"col_id":8,"region_name":"外围-东部","cell_id":"r4_c8","area_km2":18.178710651289414},"geometry":{"type":"Polygon","coordinates":[[[105.960263,28.156499],[105.960263,28.206499],[105.99369159977894,28.206499],[105.99369159977894,28.156499],[105.960263,28.156499]]]}},{"type":"Feature","properties":{"row_id":5,"col_id":1,"region_name":"外围-西部","cell_id":"r5_c1","area_km2":13.587411235109526},"geometry":{"type":"Polygon","coordinates":[[[105.660263,28.256499],[105.660263,28.206499],[105.63526264470082,28.206499],[105.63526264470082,28.256499],[105.660263,28.256499]]]}},{"type":"Feature","properties":{"row_id":5,"col_id":2,"region_name":"外围-西部","cell_id":"r5_c2","area_km2":27.174760599574153},"geometry":{"type":"Polygon","coordinates":[[[105.660263,28.206499],[105.660263,28.256499],[105.710263,28.256499],[105.710263,28.206499],[105.660263,28.206499]]]}},{"type":"Feature","properties":{"row_id":5,"col_id":3,"region_name":"茶林区域-西部","cell_id":"r5_c3","area_km2":27.17521938684868},"geometry":{"type":"Polygon","coordinates":[[[105.710263,28.206499],[105.710263,28.256499],[105.760263,28.256499],[105.760263,28.206499],[105.710263,28.206499]]]}},{"type":"Feature","properties":{"row_id":5,"col_id":4,"region_name":"茶林区域（中）","cell_id":"r5_c4","area_km2":27.175710480902872},"geometry":{"type":"Polygon","coordinates":[[[105.760263,28.206499],[105.760263,28.256499],[105.810263,28.256499],[105.810263,28.206499],[105.760263,28.206499]]]}},{"type":"Feature","properties":{"row_id":5,"col_id":5,"region_name":"茶林区域-东部","cell_id":"r5_c5","area_km2":27.176233883734557},"geometry":{"type":"Polygon","coordinates":[[[105.810263,28.206499],[105.810263,28.256499],[105.860263,28.256499],[105.860263,28.206499],[105.810263,28.206499]]]}},{"type":"Feature","properties":{"row_id":5,"col_id":6,"region_name":"茶林区域-东部","cell_id":"r5_c6","area_km2":27.176789597467813},"geometry":{"type":"Polygon","coordinates":[[[105.860263,28.206499],[105.860263,28.256499],[105.910263,28.256499],[105.910263,28.206499],[105.860263,28.206499]]]}},{"type":"Feature","properties":{"row_id":5,"col_id":7,"region_name":"外围-东部","cell_id":"r5_c7","area_km2":27.177377624362848},"geometry":{"type":"Polygon","coordinates":[[[105.910263,28.206499],[105.910263,28.256499],[105.960263,28.256499],[105.960263,28.206499],[105.910263,28.206499]]]}},{"type":"Feature","properties":{"row_id":5,"col_id":8,"region_name":"外围-东部","cell_id":"r5_c8","area_km2":18.170377404131862},"geometry":{"type":"Polygon","coordinates":[[[105.960263,28.206499],[105.960263,28.256499],[105.99369159977894,28.256499],[105.99369159977894,28.206499],[105.960263,28.206499]]]}},{"type":"Feature","properties":{"row_id":6,"col_id":1,"region_name":"外围-西部","cell_id":"r6_c1","area_km2":13.58117112613875},"geometry":{"type":"Polygon","coordinates":[[[105.660263,28.306499],[105.660263,28.256499],[105.63526264470082,28.256499],[105.63526264470082,28.306499],[105.660263,28.306499]]]}},{"type":"Feature","properties":{"row_id":6,"col_id":2,"region_name":"外围-西部","cell_id":"r6_c2","area_km2":27.16228010204398},"geometry":{"type":"Polygon","coordinates":[[[105.660263,28.256499],[105.660263,28.306499],[105.710263,28.306499],[105.710263,28.256499],[105.660263,28.256499]]]}},{"type":"Feature","properties":{"row_id":6,"col_id":3,"region_name":"茶林区域-西北","cell_id":"r6_c3","area_km2":27.16273824635019},"geometry":{"type":"Polygon","coordinates":[[[105.710263,28.256499],[105.710263,28.306499],[105.760263,28.306499],[105.760263,28.256499],[105.710263,28.256499]]]}},{"type":"Feature","properties":{"row_id":6,"col_id":4,"region_name":"茶林区域-北部","cell_id":"r6_c4","area_km2":27.163228652145886},"geometry":{"type":"Polygon","coordinates":[[[105.760263,28.256499],[105.760263,28.306499],[105.810263,28.306499],[105.810263,28.256499],[105.760263,28.256499]]]}},{"type":"Feature","properties":{"row_id":6,"col_id":5,"region_name":"茶林区域-东北","cell_id":"r6_c5","area_km2":27.163751321419202},"geometry":{"type":"Polygon","coordinates":[[[105.810263,28.256499],[105.810263,28.306499],[105.860263,28.306499],[105.860263,28.256499],[105.810263,28.256499]]]}},{"type":"Feature","properties":{"row_id":6,"col_id":6,"region_name":"茶林区域-东北","cell_id":"r6_c6","area_km2":27.164306256291688},"geometry":{"type":"Polygon","coordinates":[[[105.860263,28.256499],[105.860263,28.306499],[105.910263,28.306499],[105.910263,28.256499],[105.860263,28.256499]]]}},{"type":"Feature","properties":{"row_id":6,"col_id":7,"region_name":"外围-东部","cell_id":"r6_c7","area_km2":27.164893459013893},"geometry":{"type":"Polygon","coordinates":[[[105.910263,28.256499],[105.910263,28.306499],[105.960263,28.306499],[105.960263,28.256499],[105.910263,28.256499]]]}},{"type":"Feature","properties":{"row_id":6,"col_id":8,"region_name":"外围-东部","cell_id":"r6_c8","area_km2":18.162030360090597},"geometry":{"type":"Polygon","coordinates":[[[105.960263,28.256499],[105.960263,28.306499],[105.99369159977894,28.306499],[105.99369159977894,28.256499],[105.960263,28.256499]]]}},{"type":"Feature","properties":{"row_id":7,"col_id":1,"region_name":"外围-北部","cell_id":"r7_c1","area_km2":13.574920704471129},"geometry":{"type":"Polygon","coordinates":[[[105.660263,28.356499],[105.660263,28.306499],[105.63526264470082,28.306499],[105.63526264470082,28.356499],[105.660263,28.356499]]]}},{"type":"Feature","properties":{"row_id":7,"col_id":2,"region_name":"茶林区域-西北","cell_id":"r7_c2","area_km2":27.149778979100706},"geometry":{"type":"Polygon","coordinates":[[[105.660263,28.306499],[105.660263,28.356499],[105.710263,28.356499],[105.710263,28.306499],[105.660263,28.306499]]]}},{"type":"Feature","properties":{"row_id":7,"col_id":3,"region_name":"茶林区域-西北","cell_id":"r7_c3","area_km2":27.150236480002015},"geometry":{"type":"Polygon","coordinates":[[[105.710263,28.306499],[105.710263,28.356499],[105.760263,28.356499],[105.760263,28.306499],[105.710263,28.306499]]]}},{"type":"Feature","properties":{"row_id":7,"col_id":4,"region_name":"茶林区域-北部","cell_id":"r7_c4","area_km2":27.15072619706525},"geometry":{"type":"Polygon","coordinates":[[[105.760263,28.306499],[105.760263,28.356499],[105.810263,28.356499],[105.810263,28.306499],[105.760263,28.306499]]]}},{"type":"Feature","properties":{"row_id":7,"col_id":5,"region_name":"茶林区域-东北","cell_id":"r7_c5","area_km2":27.151248132275896},"geometry":{"type":"Polygon","coordinates":[[[105.810263,28.306499],[105.810263,28.356499],[105.860263,28.356499],[105.860263,28.306499],[105.810263,28.306499]]]}},{"type":"Feature","properties":{"row_id":7,"col_id":6,"region_name":"茶林区域-东北","cell_id":"r7_c6","area_km2":27.15180228774481},"geometry":{"type":"Polygon","coordinates":[[[105.860263,28.306499],[105.860263,28.356499],[105.910263,28.356499],[105.910263,28.306499],[105.860263,28.306499]]]}},{"type":"Feature","properties":{"row_id":7,"col_id":7,"region_name":"外围-北部","cell_id":"r7_c7","area_km2":27.15238866571954},"geometry":{"type":"Polygon","coordinates":[[[105.910263,28.306499],[105.910263,28.356499],[105.960263,28.356499],[105.960263,28.306499],[105.910263,28.306499]]]}},{"type":"Feature","properties":{"row_id":7,"col_id":8,"region_name":"外围-北部","cell_id":"r7_c8","area_km2":18.153669524452138},"geometry":{"type":"Polygon","coordinates":[[[105.960263,28.306499],[105.960263,28.356499],[105.99369159977894,28.356499],[105.99369159977894,28.306499],[105.960263,28.306499]]]}},{"type":"Feature","properties":{"row_id":8,"col_id":1,"region_name":"外围-北部","cell_id":"r8_c1","area_km2":13.568659974063602},"geometry":{"type":"Polygon","coordinates":[[[105.660263,28.406499],[105.660263,28.356499],[105.63526264470082,28.356499],[105.63526264470082,28.406499],[105.660263,28.406499]]]}},{"type":"Feature","properties":{"row_id":8,"col_id":2,"region_name":"外围-北部","cell_id":"r8_c2","area_km2":27.137257238661817},"geometry":{"type":"Polygon","coordinates":[[[105.660263,28.356499],[105.660263,28.406499],[105.710263,28.406499],[105.710263,28.356499],[105.660263,28.356499]]]}},{"type":"Feature","properties":{"row_id":8,"col_id":3,"region_name":"外围-北部","cell_id":"r8_c3","area_km2":27.137714095707402},"geometry":{"type":"Polygon","coordinates":[[[105.710263,28.356499],[105.710263,28.406499],[105.760263,28.406499],[105.760263,28.356499],[105.710263,28.356499]]]}},{"type":"Feature","properties":{"row_id":8,"col_id":4,"region_name":"外围-北部","cell_id":"r8_c4","area_km2":27.138203123562977},"geometry":{"type":"Polygon","coordinates":[[[105.760263,28.356499],[105.760263,28.406499],[105.810263,28.406499],[105.810263,28.356499],[105.760263,28.356499]]]}},{"type":"Feature","properties":{"row_id":8,"col_id":5,"region_name":"外围-北部","cell_id":"r8_c5","area_km2":27.13872432420807},"geometry":{"type":"Polygon","coordinates":[[[105.810263,28.356499],[105.810263,28.406499],[105.860263,28.406499],[105.860263,28.356499],[105.810263,28.356499]]]}},{"type":"Feature","properties":{"row_id":8,"col_id":6,"region_name":"外围-北部","cell_id":"r8_c6","area_km2":27.13927769974304},"geometry":{"type":"Polygon","coordinates":[[[105.860263,28.356499],[105.860263,28.406499],[105.910263,28.406499],[105.910263,28.356499],[105.860263,28.356499]]]}},{"type":"Feature","properties":{"row_id":8,"col_id":7,"region_name":"外围-北部","cell_id":"r8_c7","area_km2":27.139863252409345},"geometry":{"type":"Polygon","coordinates":[[[105.910263,28.356499],[105.910263,28.406499],[105.960263,28.406499],[105.960263,28.356499],[105.910263,28.356499]]]}},{"type":"Feature","properties":{"row_id":8,"col_id":8,"region_name":"外围-北部","cell_id":"r8_c8","area_km2":18.145294902518614},"geometry":{"type":"Polygon","coordinates":[[[105.960263,28.356499],[105.960263,28.406499],[105.99369159977894,28.406499],[105.99369159977894,28.356499],[105.960263,28.356499]]]}}]}